NORAD_CAT_ID,OBJECT_NAME,OBJECT_TYPE,EPOCH,MEAN_MOTION,ECCENTRICITY,INCLINATION,RA_OF_ASC_NODE,ARG_OF_PERICENTER,MEAN_ANOMALY,BSTAR,MEAN_MOTION_DOT,MEAN_MOTION_DDOT,TLE_LINE0,TLE_LINE1,TLE_LINE2,SEMIMAJOR_AXIS,PERIOD,APOGEE,PERIGEE,DECAYED
49159.0,STARLINK-3056,PAYLOAD,2023-04-09 17:36:47,14.98329507,0.000309,69.9983,99.5899,271.1628,88.9177,2.5381e-05,2.1e-06,0.0,0 STARLINK-3056,1 49159U 21082AF  23099.73388081  .00000210  00000-0  25381-4 0  9998,2 49159  69.9983  99.5899 0003090 271.1628  88.9177 14.98329507 87555,6950.194,96.107,574.207,569.912,0.0
49159.0,STARLINK-3056,PAYLOAD,2023-04-10 08:01:59,14.9833297,0.000311,69.9983,98.075,271.364,88.7162,4.1712e-05,4.05e-06,0.0,0 STARLINK-3056,1 49159U 21082AF  23100.33471797  .00000405  00000-0  41712-4 0  9996,2 49159  69.9983  98.0750 0003110 271.3640  88.7162 14.98332970 87644,6950.184,96.107,574.21,569.887,0.0
49159.0,STARLINK-3056,PAYLOAD,2023-04-10 17:38:47,14.98332315,0.0003111,69.9984,97.0649,271.4664,88.6139,5.2817e-05,5.37e-06,0.0,0 STARLINK-3056,1 49159U 21082AF  23100.73527758  .00000537  00000-0  52817-4 0  9993,2 49159  69.9984  97.0649 0003111 271.4664  88.6139 14.98332315 87702,6950.186,96.107,574.213,569.889,0.0
49159.0,STARLINK-3056,PAYLOAD,2023-04-11 09:40:08,14.98334261,0.0003123,69.9982,95.3814,271.0981,88.982,9.098e-05,9.93e-06,0.0,0 STARLINK-3056,1 49159U 21082AF  23101.40287456  .00000993  00000-0  90980-4 0  9995,2 49159  69.9982  95.3814 0003123 271.0981  88.9820 14.98334261 87809,6950.18,96.107,574.215,569.874,0.0
49159.0,STARLINK-3056,PAYLOAD,2023-04-12 04:53:45,14.98330417,0.0003015,69.9985,93.3615,272.3391,87.7422,-1.7976e-06,-1.14e-06,0.0,0 STARLINK-3056,1 49159U 21082AF  23102.20399886 -.00000114  00000-0 -17976-5 0  9997,2 49159  69.9985  93.3615 0003015 272.3391  87.7422 14.98330417 87925,6950.192,96.107,574.152,569.961,0.0
49159.0,STARLINK-3056,PAYLOAD,2023-04-12 12:54:25,14.98331077,0.0002999,69.9986,92.5196,272.6487,87.4329,2.1012e-05,1.58e-06,0.0,0 STARLINK-3056,1 49159U 21082AF  23102.53779772  .00000158  00000-0  21012-4 0  9990,2 49159  69.9986  92.5196 0002999 272.6487  87.4329 14.98331077 87971,6950.19,96.107,574.139,569.97,0.0
49159.0,STARLINK-3056,PAYLOAD,2023-04-13 09:44:10,14.9833185,0.0002974,69.9986,90.3312,272.2569,87.8249,1.1257e-05,4.1e-07,0.0,0 STARLINK-3056,1 49159U 21082AF  23103.40567726  .00000041  00000-0  11257-4 0  9992,2 49159  69.9986  90.3312 0002974 272.2569  87.8249 14.98331850 88107,6950.187,96.107,574.119,569.985,0.0
49159.0,STARLINK-3056,PAYLOAD,2023-04-14 08:10:03,14.98332168,0.0003059,69.9984,87.9745,269.9858,90.0951,6.8424e-05,7.24e-06,0.0,0 STARLINK-3056,1 49159U 21082AF  23104.34031511  .00000724  00000-0  68424-4 0  9990,2 49159  69.9984  87.9745 0003059 269.9858  90.0951 14.98332168 88240,6950.186,96.107,574.177,569.925,0.0
49159.0,STARLINK-3056,PAYLOAD,2023-04-15 08:12:04,14.98333108,0.0003053,69.9986,85.4497,271.3662,88.7147,6.6493e-05,7.01e-06,0.0,0 STARLINK-3056,1 49159U 21082AF  23105.34171487  .00000701  00000-0  66493-4 0  9997,2 49159  69.9986  85.4497 0003053 271.3662  88.7147 14.98333108 88395,6950.183,96.107,574.17,569.926,0.0
49159.0,STARLINK-3056,PAYLOAD,2023-04-15 16:12:44,14.98321969,0.0002858,69.9989,84.6084,268.4415,91.6417,0.00015676,1.778e-05,0.0,0 STARLINK-3056,1 49159U 21082AF  23105.67552051  .00001778  00000-0  15676-3 0  9994,2 49159  69.9989  84.6084 0002858 268.4415  91.6417 14.98321969 88447,6950.218,96.108,574.069,570.096,0.0
49159.0,STARLINK-3056,PAYLOAD,2023-04-16 08:14:05,14.9833144,0.0002938,69.9992,82.9245,269.0581,91.0242,2.267e-05,1.78e-06,0.0,0 STARLINK-3056,1 49159U 21082AF  23106.34311711  .00000178  00000-0  22670-4 0  9991,2 49159  69.9992  82.9245 0002938 269.0581  91.0242 14.98331440 88547,6950.188,96.107,574.095,570.011,0.0
49159.0,STARLINK-3056,PAYLOAD,2023-04-16 16:14:45,14.9833128,0.0002914,69.9996,82.0829,269.2447,90.8378,3.7333e-05,3.52e-06,0.0,0 STARLINK-3056,1 49159U 21082AF  23106.67691689  .00000352  00000-0  37333-4 0  9998,2 49159  69.9996  82.0829 0002914 269.2447  90.8378 14.98331280 88591,6950.189,96.107,574.079,570.029,0.0
49159.0,STARLINK-3056,PAYLOAD,2023-04-17 08:16:06,14.98333325,0.0002879,69.9997,80.3997,268.9302,91.1527,6.7391e-05,7.11e-06,0.0,0 STARLINK-3056,1 49159U 21082AF  23107.34451502  .00000711  00000-0  67391-4 0  9997,2 49159  69.9997  80.3997 0002879 268.9302  91.1527 14.98333325 88698,6950.183,96.107,574.049,570.047,0.0
49159.0,STARLINK-3056,PAYLOAD,2023-04-17 21:05:10,14.98331157,0.0002879,69.9997,79.0531,268.426,91.6569,5.7431e-05,5.92e-06,0.0,0 STARLINK-3056,1 49159U 21082AF  23107.87859643  .00000592  00000-0  57431-4 0  9994,2 49159  69.9997  79.0531 0002879 268.4260  91.6569 14.98331157 88776,6950.189,96.107,574.055,570.053,0.0
49159.0,STARLINK-3056,PAYLOAD,2023-04-18 08:18:07,14.98331714,0.0002883,69.9997,77.8752,268.1006,91.9823,5.4616e-05,5.59e-06,0.0,0 STARLINK-3056,1 49159U 21082AF  23108.34591598  .00000559  00000-0  54616-4 0  9994,2 49159  69.9997  77.8752 0002883 268.1006  91.9823 14.98331714 88840,6950.188,96.107,574.056,570.049,0.0
49159.0,STARLINK-3056,PAYLOAD,2023-04-18 21:07:11,14.983293,0.0002796,70.0,76.5287,268.8171,91.2668,7.1245e-06,-8e-08,0.0,0 STARLINK-3056,1 49159U 21082AF  23108.87999916 -.00000008  00000-0  71245-5 0  9996,2 49159  70.0000  76.5287 0002796 268.8171  91.2668 14.98329300 88927,6950.195,96.107,574.003,570.117,0.0
49159.0,STARLINK-3056,PAYLOAD,2023-04-19 08:20:08,14.98332316,0.0002732,70.0001,75.3511,263.4376,96.6472,4.392e-05,4.31e-06,0.0,0 STARLINK-3056,1 49159U 21082AF  23109.34731597  .00000431  00000-0  43920-4 0  9995,2 49159  70.0001  75.3511 0002732 263.4376  96.6472 14.98332316 88993,6950.186,96.107,573.95,570.152,0.0
49159.0,STARLINK-3056,PAYLOAD,2023-04-20 08:22:09,14.98331507,0.0002677,70.0003,72.8263,264.6086,95.4768,6.3404e-05,6.64e-06,0.0,0 STARLINK-3056,1 49159U 21082AF  23110.34871553  .00000664  00000-0  63404-4 0  9991,2 49159  70.0003  72.8263 0002677 264.6086  95.4768 14.98331507 89144,6950.188,96.107,573.914,570.193,0.0
49159.0,STARLINK-3056,PAYLOAD,2023-04-21 05:11:54,14.9832387,0.0002593,70.0006,70.6364,260.6766,99.41,-2.4967e-05,-3.91e-06,0.0,0 STARLINK-3056,1 49159U 21082AF  23111.21660351 -.00000391  00000-0 -24967-4 0  9990,2 49159  70.0006  70.6364 0002593 260.6766  99.4100 14.98323870 89275,6950.212,96.107,573.879,570.275,0.0
49159.0,STARLINK-3056,PAYLOAD,2023-04-21 14:48:42,14.98331191,0.0002885,70.0003,69.6265,272.6606,87.4223,6.3135e-07,-8.5e-07,0.0,0 STARLINK-3056,1 49159U 21082AF  23111.61715967 -.00000085  00000-0  63135-6 0  9999,2 49159  70.0003  69.6265 0002885 272.6606  87.4223 14.98331191 89335,6950.189,96.107,574.059,570.049,0.0
49159.0,STARLINK-3056,PAYLOAD,2023-04-22 06:50:02,14.98340658,0.0002982,70.0,67.9429,266.9602,93.1216,0.00012633,1.415e-05,0.0,0 STARLINK-3056,1 49159U 21082AF  23112.28474854  .00001415  00000-0  12633-3 0  9991,2 49159  70.0000  67.9429 0002982 266.9602  93.1216 14.98340658 89430,6950.16,96.106,574.097,569.952,0.0
49159.0,STARLINK-3056,PAYLOAD,2023-04-22 14:50:42,14.98334424,0.0002443,70.0015,67.1032,269.7777,90.3102,0.00011231,1.248e-05,0.0,0 STARLINK-3056,1 49159U 21082AF  23112.61855317  .00001248  00000-0  11231-3 0  9992,2 49159  70.0015  67.1032 0002443 269.7777  90.3102 14.98334424 89486,6950.179,96.107,573.742,570.346,0.0
49159.0,STARLINK-3056,PAYLOAD,2023-04-23 03:39:47,14.98326046,0.0002535,70.0015,65.7552,267.6307,92.4562,0.00012228,1.366e-05,0.0,0 STARLINK-3056,1 49159U 21082AF  23113.15263801  .00001366  00000-0  12228-3 0  9991,2 49159  70.0015  65.7552 0002535 267.6307  92.4562 14.98326046 89568,6950.205,96.107,573.832,570.308,0.0
49159.0,STARLINK-3056,PAYLOAD,2023-04-23 06:52:04,14.98327634,0.0002913,70.0004,65.4193,271.3247,88.7578,4.2003e-05,4.08e-06,0.0,0 STARLINK-3056,1 49159U 21082AF  23113.28615887  .00000408  00000-0  42003-4 0  9991,2 49159  70.0004  65.4193 0002913 271.3247  88.7578 14.98327634 89580,6950.2,96.107,574.09,570.041,0.0
49159.0,STARLINK-3056,PAYLOAD,2023-04-24 06:54:03,14.98350715,0.0002898,70.0003,62.8941,269.797,90.2857,0.00013041,1.464e-05,0.0,0 STARLINK-3056,1 49159U 21082AF  23114.28753692  .00001464  00000-0  13041-3 0  9991,2 49159  70.0003  62.8941 0002898 269.7970  90.2857 14.98350715 89738,6950.129,96.106,574.008,569.98,0.0
49159.0,STARLINK-3056,PAYLOAD,2023-04-25 03:43:48,14.98335805,0.0002506,70.0009,60.7041,275.1202,84.9671,0.00016234,1.845e-05,0.0,0 STARLINK-3056,1 49159U 21082AF  23115.15541863  .00001845  00000-0  16234-3 0  9993,2 49159  70.0009  60.7041 0002506 275.1202  84.9671 14.98335805 89868,6950.175,96.107,573.782,570.298,0.0
49159.0,STARLINK-3056,PAYLOAD,2023-04-25 06:56:04,14.98336632,0.0002701,70.0005,60.3675,277.6067,82.4785,0.00014459,1.633e-05,0.0,0 STARLINK-3056,1 49159U 21082AF  23115.28893830  .00001633  00000-0  14459-3 0  9993,2 49159  70.0005  60.3675 0002701 277.6067  82.4785 14.98336632 89886,6950.172,96.107,573.915,570.16,0.0
49159.0,STARLINK-3056,PAYLOAD,2023-04-26 06:58:08,14.98312531,0.0002542,70.0005,57.8447,270.4393,89.6474,-0.00031354,-3.83e-05,0.0,0 STARLINK-3056,1 49159U 21082AF  23116.29037078 -.00003830  00000-0 -31354-3 0  9995,2 49159  70.0005  57.8447 0002542 270.4393  89.6474 14.98312531 90035,6950.247,96.108,573.879,570.345,0.0
49159.0,STARLINK-3056,PAYLOAD,2023-04-27 02:11:44,14.98315149,0.000283,70.0011,55.8258,266.9594,93.1241,-0.00014221,-1.789e-05,0.0,0 STARLINK-3056,1 49159U 21082AF  23117.09148970 -.00001789  00000-0 -14221-3 0  9993,2 49159  70.0011  55.8258 0002830 266.9594  93.1241 14.98315149 90156,6950.239,96.108,574.071,570.137,0.0
49159.0,STARLINK-3056,PAYLOAD,2023-04-27 07:00:07,14.98332615,0.0002994,70.0011,55.3204,265.1749,94.9068,6.3765e-05,6.68e-06,0.0,0 STARLINK-3056,1 49159U 21082AF  23117.29175519  .00000668  00000-0  63765-4 0  9995,2 49159  70.0011  55.3204 0002994 265.1749  94.9068 14.98332615 90182,6950.185,96.107,574.131,569.969,0.0
